OBJECT_NAME,OBJECT_ID,EPOCH,MEAN_MOTION,ECCENTRICITY,INCLINATION,RA_OF_ASC_NODE,ARG_OF_PERICENTER,MEAN_ANOMALY,EPHEMERIS_TYPE,CLASSIFICATION_TYPE,NORAD_CAT_ID,ELEMENT_SET_NO,REV_AT_EPOCH,BSTAR,MEAN_MOTION_DOT,MEAN_MOTION_DDOT
SL-16 R/B,1994-077B,2026-07-21T00:56:35.344608,14.15575761,.00041784,70.9822,71.9440,299.0038,61.0665,0,U,23405,999,63510,.14135783E-3,.229E-5,0
ARIANE 40+ R/B,1995-021B,2026-07-21T04:02:49.373664,14.39849787,.00079452,98.4396,271.7501,101.5539,286.3373,0,U,23561,999,63845,.63303837E-4,.155E-5,0
SL-16 R/B,1995-058B,2026-07-21T02:57:38.278080,14.15512298,.00147155,71.0205,260.1090,275.2354,84.7090,0,U,23705,999,58673,.16278994E-3,.271E-5,0
SL-16 R/B,1996-051B,2026-07-21T02:17:26.976768,14.12458897,.00181933,70.7640,252.8909,290.4746,69.4420,0,U,24298,999,54048,.10447426E-3,.144E-5,0
ORBVIEW 2 (SEASTAR),1997-037A,2026-07-21T00:47:30.354144,14.35568602,.0002864,98.8721,9.9956,48.9486,311.1946,0,U,24883,999,52760,.63254202E-4,.135E-5,0
SL-16 R/B,1998-043G,2026-07-21T02:39:49.046976,14.26073380,.00097348,98.8382,156.5656,354.4597,5.6473,0,U,25400,999,45800,.2895682E-4,.24E-6,0
SL-16 R/B,1998-045B,2026-07-21T03:20:48.823872,14.16205496,.00078633,71.0099,260.9278,197.8541,162.2307,0,U,25407,999,44599,.92071567E-4,.135E-5,0
ISS (ZARYA),1998-067A,2026-07-21T04:27:10.178208,15.49071756,.00068493,51.6316,131.8443,320.6461,39.4029,0,U,25544,999,57702,.11479289E-3,.5896E-4,0
CZ-4B R/B,1999-025C,2026-07-21T03:26:17.277792,14.18288347,.00363482,98.6468,243.1243,322.3003,105.6709,0,U,25732,999,40708,.2227205E-4,.3E-7,0
OKEAN-O,1999-039A,2026-07-21T03:22:45.688512,14.80501680,.00008876,97.9295,260.5457,99.2878,260.8434,0,U,25860,999,45413,.52843937E-4,.353E-5,0
SL-16 R/B,1999-039B,2026-07-21T03:08:47.280192,14.81874658,.00148033,97.9818,260.8940,178.9403,181.1844,0,U,25861,999,45662,.46828787E-4,.317E-5,0
DELTA 2 R/B,1999-041E,2026-07-21T05:18:18.885888,14.12101209,.05014878,51.7615,127.8174,22.5450,339.6701,0,U,25876,999,38189,.21354825E-3,.1087E-4,0
HELIOS 1B,1999-064A,2026-07-21T04:53:11.579136,14.88085028,.00016759,98.1576,108.3237,47.5457,312.5901,0,U,25977,999,70511,.10140379E-3,.874E-5,0
TERRA,1999-068A,2026-07-21T06:13:07.029696,14.61126820,.0003618,97.9436,250.4512,110.9634,313.8018,0,U,25994,999,41458,.58785507E-4,.245E-5,0
SL-16 R/B,2000-006B,2026-07-21T02:51:01.200960,14.15839335,.001745,71.0008,177.2776,331.7542,28.2633,0,U,26070,999,36744,.15294373E-3,.253E-5,0
TITAN 4B R/B,2000-047B,2026-07-21T05:35:39.892704,15.10353205,.00457023,67.9874,24.7272,252.6942,106.9205,0,U,26474,999,41307,.11676272E-3,.1825E-4,0
ENVISAT,2002-009A,2026-07-20T21:40:14.224224,14.39071591,.00013028,98.3849,152.4727,82.0779,346.4966,0,U,27386,999,27833,.28345328E-4,.45E-6,0
IDEFIX & ARIANE 42P R/B,2002-021B,2026-07-21T05:58:33.111840,14.31095618,.00122674,98.5941,139.3640,149.0996,211.0911,0,U,27422,999,26312,.67660659E-4,.135E-5,0
AQUA,2002-022A,2026-07-21T06:40:39.383904,14.62134327,.00013161,98.4301,172.2474,102.0253,1.6389,0,U,27424,999,28825,.11202805E-3,.514E-5,0
CZ-4B R/B,2002-024C,2026-07-21T02:52:43.239360,14.14568881,.00501668,98.8680,254.7163,5.1960,49.5636,0,U,27432,999,24810,.29546446E-4,.13E-6,0
MIDORI II (ADEOS-II),2002-056A,2026-07-20T21:05:13.616448,14.29364829,.00012424,98.7897,161.4287,33.2623,326.8636,0,U,27597,999,22932,.70406721E-4,.134E-5,0
H-2A R/B,2002-056E,2026-07-21T07:05:30.844032,14.33836192,.00711832,98.3331,157.7303,122.9729,40.9965,0,U,27601,999,23325,.77948822E-4,.182E-5,0
CZ-4B R/B,2003-049C,2026-07-21T06:27:38.637216,14.55118706,.00480068,98.6914,202.4753,182.6316,177.4635,0,U,28059,999,20602,.57148411E-4,.199E-5,0
CZ-2C R/B,2004-012C,2026-07-20T17:37:58.174176,15.86406800,.00107662,97.7029,281.4913,174.9419,185.1962,0,U,28222,999,22520,.45311174E-3,.11468E-2,0
SL-16 R/B,2004-021B,2026-07-21T05:51:57.115584,14.14615839,.00061036,71.0028,312.2141,219.6241,140.4436,0,U,28353,999,14172,-.69006725E-4,-.18E-5,0
CZ-4B R/B,2004-035C,2026-07-21T01:22:23.426112,15.31040926,.00297346,97.3355,234.7563,211.0167,148.9320,0,U,28415,999,20030,.1710782E-3,.512E-4,0
CZ-2C R/B,2004-046B,2026-07-21T04:45:26.490528,14.27034610,.01404203,98.1908,108.8474,119.7402,241.7837,0,U,28480,999,12754,.46153325E-4,.85E-6,0
ARIANE 5 R/B,2004-049H,2026-07-21T05:08:07.643040,14.85483486,.00824993,98.2747,15.7879,278.4627,80.7243,0,U,28499,999,16561,.49648418E-4,.388E-5,0
CZ-2D R/B,2005-024B,2026-07-21T00:45:41.735520,15.73272151,.00034185,97.3471,223.2442,176.5935,183.5353,0,U,28738,999,16065,.38252136E-3,.52764E-3,0
ALOS (DAICHI),2006-002A,2026-07-20T20:24:32.781888,14.70108746,.0000942,98.1340,157.3177,107.8973,252.2336,0,U,28931,999,9304,.1058026E-3,.586E-5,0
