SL-16 R/B               
1 23405U 94077B   26202.03929797  .00000229  00000+0  14136-3 0  9999
2 23405  70.9822  71.9440 0004178 299.0038  61.0665 14.15575761635101
ARIANE 40+ R/B          
1 23561U 95021B   26202.16862701  .00000155  00000+0  63304-4 0  9997
2 23561  98.4396 271.7501 0007945 101.5539 286.3373 14.39849787638458
SL-16 R/B               
1 23705U 95058B   26202.12335970  .00000271  00000+0  16279-3 0  9993
2 23705  71.0205 260.1090 0014715 275.2354  84.7090 14.15512298586733
SL-16 R/B               
1 24298U 96051B   26202.09545112  .00000144  00000+0  10447-3 0  9992
2 24298  70.7640 252.8909 0018193 290.4746  69.4420 14.12458897540485
ORBVIEW 2 (SEASTAR)     
1 24883U 97037A   26202.03299021  .00000135  00000+0  63254-4 0  9991
2 24883  98.8721   9.9956 0002864  48.9486 311.1946 14.35568602527604
SL-16 R/B               
1 25400U 98043G   26202.11098434  .00000024  00000+0  28957-4 0  9997
2 25400  98.8382 156.5656 0009734 354.4597   5.6473 14.26073380458001
SL-16 R/B               
1 25407U 98045B   26202.13945398  .00000135  00000+0  92072-4 0  9990
2 25407  71.0099 260.9278 0007863 197.8541 162.2307 14.16205496445999
ISS (ZARYA)             
1 25544U 98067A   26202.18553447  .00005896  00000+0  11479-3 0  9991
2 25544  51.6316 131.8443 0006849 320.6461  39.4029 15.49071756577020
CZ-4B R/B               
1 25732U 99025C   26202.14325553  .00000003  00000+0  22272-4 0  9995
2 25732  98.6468 243.1243 0036348 322.3003 105.6709 14.18288347407081
OKEAN-O                 
1 25860U 99039A   26202.14080658  .00000353  00000+0  52844-4 0  9992
2 25860  97.9295 260.5457 0000887  99.2878 260.8434 14.80501680454136
SL-16 R/B               
1 25861U 99039B   26202.13110278  .00000317  00000+0  46829-4 0  9990
2 25861  97.9818 260.8940 0014803 178.9403 181.1844 14.81874658456625
DELTA 2 R/B             
1 25876U 99041E   26202.22105192  .00001087  00000+0  21355-3 0  9999
2 25876  51.7615 127.8174 0501487  22.5450 339.6701 14.12101209381897
HELIOS 1B               
1 25977U 99064A   26202.20360624  .00000874  00000+0  10140-3 0  9990
2 25977  98.1576 108.3237 0001675  47.5457 312.5901 14.88085028705112
TERRA                   
1 25994U 99068A   26202.25910914  .00000245  00000+0  58786-4 0  9992
2 25994  97.9436 250.4512 0003618 110.9634 313.8018 14.61126820414587
SL-16 R/B               
1 26070U 00006B   26202.11876390  .00000253  00000+0  15294-3 0  9991
2 26070  71.0008 177.2776 0017450 331.7542  28.2633 14.15839335367442
TITAN 4B R/B            
1 26474U 00047B   26202.23310061  .00001825  00000+0  11676-3 0  9991
2 26474  67.9874  24.7272 0045702 252.6942 106.9205 15.10353205413071
ENVISAT                 
1 27386U 02009A   26201.90294241  .00000045  00000+0  28345-4 0  9993
2 27386  98.3849 152.4727 0001302  82.0779 346.4966 14.39071591278337
IDEFIX & ARIANE 42P R/B 
1 27422U 02021B   26202.24899435  .00000135  00000+0  67661-4 0  9996
2 27422  98.5941 139.3640 0012267 149.0996 211.0911 14.31095618263124
AQUA                    
1 27424U 02022A   26202.27823361  .00000514  00000+0  11203-3 0  9998
2 27424  98.4301 172.2474 0001316 102.0253   1.6389 14.62134327288252
CZ-4B R/B               
1 27432U 02024C   26202.11994490  .00000013  00000+0  29546-4 0  9998
2 27432  98.8680 254.7163 0050166   5.1960  49.5636 14.14568881248100
MIDORI II (ADEOS-II)    
1 27597U 02056A   26201.87862982  .00000134  00000+0  70407-4 0  9993
2 27597  98.7897 161.4287 0001242  33.2623 326.8636 14.29364829229327
H-2A R/B                
1 27601U 02056E   26202.29549588  .00000182  00000+0  77949-4 0  9991
2 27601  98.3331 157.7303 0071183 122.9729  40.9965 14.33836192233251
CZ-4B R/B               
1 28059U 03049C   26202.26919719  .00000199  00000+0  57148-4 0  9993
2 28059  98.6914 202.4753 0048006 182.6316 177.4635 14.55118706206022
CZ-2C R/B               
1 28222U 04012C   26201.73470109  .00114680  00000+0  45311-3 0  9991
2 28222  97.7029 281.4913 0010766 174.9419 185.1962 15.86406800225206
SL-16 R/B               
1 28353U 04021B   26202.24441106 -.00000180  00000+0 -69007-4 0  9998
2 28353  71.0028 312.2141 0006103 219.6241 140.4436 14.14615839141729
CZ-4B R/B               
1 28415U 04035C   26202.05721558  .00005120  00000+0  17108-3 0  9994
2 28415  97.3355 234.7563 0029734 211.0167 148.9320 15.31040926200300
CZ-2C R/B               
1 28480U 04046B   26202.19822327  .00000085  00000+0  46153-4 0  9997
2 28480  98.1908 108.8474 0140420 119.7402 241.7837 14.27034610127545
ARIANE 5 R/B            
1 28499U 04049H   26202.21397735  .00000388  00000+0  49648-4 0  9991
2 28499  98.2747  15.7879 0082499 278.4627  80.7243 14.85483486165610
CZ-2D R/B               
1 28738U 05024B   26202.03173305  .00052764  00000+0  38252-3 0  9999
2 28738  97.3471 223.2442 0003418 176.5935 183.5353 15.73272151160652
ALOS (DAICHI)           
1 28931U 06002A   26201.85037942  .00000586  00000+0  10580-3 0  9995
2 28931  98.1340 157.3177 0000942 107.8973 252.2336 14.70108746 93048
